STARLINK-11511 [DTC]    
1 62468U 24254G   25277.86390181  .00288992  00000+0  21823-2 0  9997
2 62468  42.9984  82.2694 0001138 287.5072  72.5671 15.70795886 44898
STARLINK-11505 [DTC]    
1 62469U 24254H   25277.85327001  .00173763  00000+0  13265-2 0  9998
2 62469  42.9982  82.1849 0002419 242.8298 117.2323 15.70894404 44881
STARLINK-11497 [DTC]    
1 62470U 24254J   25277.86920105  .00347150  00000+0  25862-2 0  9994
2 62470  42.9988  82.3126 0003182 274.3022  85.7482 15.70942992 44894
STARLINK-11477 [DTC]    
1 62471U 24254K   25277.86479963  .00370791  00000+0  27511-2 0  9996
2 62471  42.9989  82.2757 0004792 277.0105  83.0218 15.70965096 44882
STARLINK-11500 [DTC]    
1 62472U 24254L   25277.84265875  .00326887  00000+0  24418-2 0  9990
2 62472  42.9975  82.0965 0001472 270.5087  89.5612 15.70940529 44362
STARLINK-11464 [DTC]    
1 62473U 24254M   25277.74734742  .00325184  00000+0  24326-2 0  9991
2 62473  42.9980  83.1189 0001357 254.2492 105.8226 15.70911430 44924
STARLINK-11502 [DTC]    
1 62474U 24254N   25278.16671295 -.00024072  00000+0 -18450-3 0  9998
2 62474  42.9998  80.3672 0001714 270.6134  34.0321 15.70857982  5761
STARLINK-32657          
1 62475U 24254P   25278.12712300  .00038562  00000+0  14013-2 0  9995
2 62475  43.0017 178.2044 0001847 262.2928  97.7714 15.27631925 43674
STARLINK-32734          
1 62476U 24254Q   25278.08534925  .00041886  00000+0  15216-2 0  9995
2 62476  43.0023 175.2863 0001905 264.4625  95.6010 15.27609656 43853
STARLINK-32733          
1 62477U 24254R   25277.78398373  .00039399  00000+0  14332-2 0  9991
2 62477  43.0030 176.4616 0001161 264.5447  95.5272 15.27588777 43813
STARLINK-32707          
1 62478U 24254S   25278.14046766  .00033940  00000+0  12361-2 0  9995
2 62478  42.9981 174.8319 0001128 270.1613  89.9109 15.27609723 43866
STARLINK-32705          
1 62479U 24254T   25277.95926346  .00035770  00000+0  13017-2 0  9997
2 62479  43.0036 168.2740 0000707 278.4076  81.6695 15.27614213 43769
STARLINK-32743          
1 62480U 24254U   25278.10319310  .00053206  00000+0  19286-2 0  9992
2 62480  43.0019 174.5628 0001764 265.4648  94.6002 15.27588795 43864
STARLINK-32753          
1 62481U 24254V   25278.05323103  .00048682  00000+0  17663-2 0  9991
2 62481  43.0017 175.0420 0001536 273.0304  87.0372 15.27592034 43856
STARLINK-32699          
1 62482U 24254W   25277.98992422  .00046760  00000+0  16967-2 0  9990
2 62482  43.0032 178.8936 0001596 250.6717 109.3962 15.27605877 43653
STARLINK-32713          
1 62487U 25003A   25277.95772933  .00035615  00000+0  12972-2 0  9997
2 62487  42.9996  88.5284 0001503 269.1212  90.9468 15.27588004 42838
STARLINK-32732          
1 62488U 25003B   25277.85892646  .00031404  00000+0  11454-2 0  9997
2 62488  43.0027  88.6443 0001554 277.2505  82.8170 15.27594062 42724
STARLINK-32328          
1 62489U 25003C   25277.84236941  .00033680  00000+0  12265-2 0  9996
2 62489  43.0007  89.3807 0001619 277.8666  82.2002 15.27616124 42835
STARLINK-32332          
1 62490U 25003D   25277.89618675  .00035735  00000+0  12999-2 0  9998
2 62490  42.9997  88.9278 0001844 273.3684  86.6957 15.27628205 42820
STARLINK-32717          
1 62491U 25003E   25277.87691738  .00039825  00000+0  14478-2 0  9996
2 62491  43.0046  88.7784 0002621 259.3993 100.6564 15.27603855 42846
STARLINK-32757          
1 62492U 25003F   25277.90262602  .00010226  00000+0  38066-3 0  9999
2 62492  42.9992  88.9709 0001459 281.1861  78.8826 15.27574971 42729
STARLINK-32731          
1 62493U 25003G   25277.85007853  .00039086  00000+0  14212-2 0  9990
2 62493  42.9994  89.4357 0001626 272.7449  87.3217 15.27606745 42837
STARLINK-32694          
1 62494U 25003H   25278.19357565  .00036015  00000+0  13111-2 0  9993
2 62494  43.0023  86.8544 0001323 282.0895  77.9809 15.27600291 42893
STARLINK-32708          
1 62495U 25003J   25277.89876002  .00040050  00000+0  14552-2 0  9996
2 62495  42.9989  88.9438 0001537 268.8741  91.1935 15.27620255 42729
STARLINK-32718          
1 62496U 25003K   25277.86278522  .00044268  00000+0  16077-2 0  9996
2 62496  43.0041  88.6753 0001827 267.6801  92.3841 15.27597597 42725
STARLINK-32729          
1 62497U 25003L   25277.87049306  .00040325  00000+0  14650-2 0  9999
2 62497  43.0048  88.7256 0002486 288.1954  71.8627 15.27621301 42849
STARLINK-32739          
1 62498U 25003M   25277.75514363  .00064545  00000+0  23324-2 0  9995
2 62498  43.0010  89.5781 0001589 268.6632  91.4037 15.27610888 42773
STARLINK-32714          
1 62499U 25003N   25277.78341191  .00035055  00000+0  12763-2 0  9995
2 62499  43.0024  89.7966 0001810 279.4700  80.5947 15.27605973 42823
STARLINK-32685          
1 62500U 25003P   25277.84108698  .00051768  00000+0  18766-2 0  9996
2 62500  43.0007  89.3714 0001745 273.5700  86.4952 15.27595959 42784
STARLINK-32691          
1 62501U 25003Q   25277.75385655  .00067384  00000+0  24332-2 0  9994
2 62501  43.0010  89.5666 0001641 279.5733  80.4933 15.27616066 42814
STARLINK-32788          
1 62502U 25003R   25277.88077999  .00049687  00000+0  18018-2 0  9998
2 62502  43.0027  88.8044 0002592 265.2523  94.8033 15.27600904 42724
STARLINK-32768          
1 62503U 25003S   25278.19099462  .00012197  00000+0  45175-3 0  9994
2 62503  43.0065  86.8279 0002001 265.6769  94.3854 15.27600628 42770
STARLINK-32792          
1 62504U 25003T   25277.85507112  .00039601  00000+0  14394-2 0  9990
2 62504  43.0055  88.6081 0001504 283.9120  76.1565 15.27614684 42721
STARLINK-32725          
1 62505U 25003U   25277.79097191  .00042895  00000+0  15578-2 0  9999
2 62505  43.0006  88.9753 0000925 264.1636  95.9110 15.27609907 42712
STARLINK-32681          
1 62506U 25003V   25277.82529970  .00049364  00000+0  17910-2 0  9999
2 62506  43.0040  70.6536 0001778 275.8507  84.2142 15.27587806 43047
STARLINK-32679          
1 62507U 25003W   25277.52571940  .00047330  00000+0  17168-2 0  9997
2 62507  43.0007  91.2648 0000689 215.8383 144.2422 15.27611094 42785
STARLINK-32749          
1 62508U 25003X   25277.54739087  .00041000  00000+0  14923-2 0  9992
2 62508  42.9995  90.5972 0001615 252.4541 107.6134 15.27553670 42671
STARLINK-32744          
1 62509U 25003Y   25277.84494097  .00033756  00000+0  12293-2 0  9992
2 62509  43.0018  89.4017 0001348 275.9630  84.1068 15.27613508 42716
STARLINK-32701          
1 62510U 25003Z   25277.95386750  .00048518  00000+0  17591-2 0  9990
2 62510  43.0013  88.4917 0001650 267.2804  92.7859 15.27616469 42738
STARLINK-11452 [DTC]    
1 62511U 25004A   25277.49646322  .00179377  00000+0  13684-2 0  9992
2 62511  42.9994 292.1922 0001198 266.1285  93.9446 15.70892986 43568
STARLINK-11443 [DTC]    
1 62512U 25004B   25278.10056212  .00364360  00000+0  26966-2 0  9990
2 62512  42.9991 288.9992 0002057 244.1546 115.9110 15.71049464 42734
STARLINK-11440 [DTC]    
1 62513U 25004C   25278.14821973  .00301245  00000+0  22672-2 0  9992
2 62513  42.9991 288.4857 0003126 295.9624  64.0922 15.70837945 42743
STARLINK-11514 [DTC]    
1 62514U 25004D   25278.16671295 -.00014094  00000+0 -10651-3 0  9995
2 62514  42.9993 288.0899 0000077  76.1087 143.7569 15.70848203  5988
STARLINK-11508 [DTC]    
1 62515U 25004E   25277.74017646  .00372539  00000+0  27734-2 0  9991
2 62515  42.9993 290.5720 0000771 311.7545  48.3257 15.70883621 42683
STARLINK-11510 [DTC]    
1 62516U 25004F   25278.08994437  .00487193  00000+0  35477-2 0  9998
2 62516  43.0005 288.9103 0002126 244.9709 115.0939 15.71071729 42735
STARLINK-11512 [DTC]    
1 62517U 25004G   25278.04216056  .00522787  00000+0  37866-2 0  9992
2 62517  42.9980 288.5253 0001731 244.4734 115.5955 15.71093022 42735
STARLINK-11450 [DTC]    
1 62518U 25004H   25278.07401421  .00277209  00000+0  20840-2 0  9998
2 62518  42.9988 288.7811 0001131 246.1239 113.9510 15.70937467 42737
STARLINK-11507 [DTC]    
1 62519U 25004J   25278.07932434  .00393077  00000+0  29091-2 0  9991
2 62519  42.9991 288.8232 0001279 242.1842 117.8896 15.70963600 42737
STARLINK-11482 [DTC]    
1 62520U 25004K   25277.72956066  .00244361  00000+0  18474-2 0  9995
2 62520  42.9992 290.4832 0000904 296.8233  63.2542 15.70904042 42680
STARLINK-11528 [DTC]    
1 62521U 25004L   25278.09525038  .00476532  00000+0  34742-2 0  9991
2 62521  42.9990 288.9474 0002333 241.9801 118.0830 15.71074646 42737
STARLINK-11516 [DTC]    
1 62522U 25004M   25278.06339617  .00557055  00000+0  40150-2 0  9995
2 62522  42.9988 288.6943 0002010 241.4010 118.6656 15.71110083 42730
STARLINK-11527 [DTC]    
1 62523U 25004N   25278.05276887  .00409099  00000+0  30283-2 0  9994
2 62523  42.9984 288.6077 0001440 250.9242 109.1470 15.70911060 42735
STARLINK-32748          
1 62524U 25004P   25277.69705846  .00030617  00000+0  11168-2 0  9993
2 62524  43.0028  20.6606 0001023 262.7938  97.2798 15.27599285 42608
STARLINK-32777          
1 62525U 25004Q   25277.99843093  .00042535  00000+0  15450-2 0  9994
2 62525  43.0038  19.4805 0001372 268.9222  91.1473 15.27607540 42649
STARLINK-32741          
1 62526U 25004R   25277.98734433  .00069881  00000+0  25215-2 0  9994
2 62526  43.0003  15.9359 0000509 216.5408 143.5409 15.27625247 42682
STARLINK-32754          
1 62527U 25004S   25277.97401329  .00016025  00000+0  59058-3 0  9994
2 62527  43.0023  19.2998 0001504 265.0132  95.0548 15.27580042 41698
STARLINK-32786          
1 62528U 25004T   25278.00598887  .00048780  00000+0  17673-2 0  9995
2 62528  43.0049  18.6738 0002279 265.0044  95.0547 15.27637250 41709
STARLINK-32789          
1 62529U 25004U   25277.98044385  .00067918  00000+0  24540-2 0  9996
2 62529  43.0023  19.3422 0000174  15.2627 344.8230 15.27593706 42649
STARLINK-32791          
1 62530U 25004V   25277.63938016  .00039204  00000+0  14255-2 0  9992
2 62530  42.9990  21.0797 0000390 264.0091  96.0717 15.27606888 42592
